{
"type": "FeatureCollection",
"name": "pavana_reference",
"crs": { "type": "name", "properties": { "name": "urn:ogc:def:crs:OGC:1.3:CRS84" } },
"features": [
{ "type": "Feature", "properties": { "name": "Pavana River", "source": "OpenStreetMap-derived public reference", "status": "Reference geometry - verify before analytical use" }, "geometry": { "type": "LineString", "coordinates": [ [ 73.73, 18.64556 ], [ 73.735, 18.6445 ], [ 73.742, 18.6425 ], [ 73.75, 18.6395 ], [ 73.76, 18.637 ] ] } }
]
}
