{
"type": "FeatureCollection",
"name": "study_area",
"crs": { "type": "name", "properties": { "name": "urn:ogc:def:crs:OGC:1.3:CRS84" } },
"features": [
{ "type": "Feature", "properties": { "area_name": "Ravet FloodTwin MVP Study Area", "city": "Pimpri-Chinchwad", "state": "Maharashtra", "country": "India", "center_lat": 18.64327, "center_lon": 73.74506, "note": "MVP study extent; not an official administrative boundary." }, "geometry": { "type": "Polygon", "coordinates": [ [ [ 73.705, 18.615 ], [ 73.785, 18.615 ], [ 73.785, 18.675 ], [ 73.705, 18.675 ], [ 73.705, 18.615 ] ] ] } }
]
}
